ORBCOMM FM06            
1 25118U 97084G   26166.96016360  .00001025  00000+0  31508-3 0  9994
2 25118  45.0145  58.6190 0001278 328.0926  46.1542 14.47560020494216
ORBCOMM FM04            
1 25159U 98007C   26167.27967868  .00000715  00000+0  29013-3 0  9991
2 25159 107.9627 167.5515 0041326 326.3305  33.5212 14.35739936476467
ORBCOMM FM19            
1 25415U 98046C   26166.54570119  .00000602  00000+0  23666-3 0  9990
2 25415  44.9934 251.3646 0004563 275.0245  99.3269 14.39493244456547
ORBCOMM FM20            
1 25416U 98046D   26166.97089841  .00000475  00000+0  20190-3 0  9992
2 25416  44.9939 257.2526 0002228 246.5749 113.4865 14.38065143456613
ORBCOMM FM27            
1 25481U 98053G   26167.14624811  .00000758  00000+0  28821-3 0  9997
2 25481  45.0064 340.2982 0000915 189.8838 170.1993 14.39139688450088
ORBCOMM FM32            
1 25982U 99065C   26167.24769128  .00000377  00000+0  17299-3 0  9993
2 25982  45.0137 177.6870 0004530  29.7396 330.3709 14.37129035386953
ORBCOMM FM109           
1 40086U 14040A   26167.07099184  .00000340  00000+0  10818-3 0  9994
2 40086  47.0032  96.7637 0001895 244.1417 115.9273 14.58843708634188
ORBCOMM FM110           
1 41182U 15081D   26167.28208699  .00000587  00000+0  16038-3 0  9997
2 41182  47.0033   5.7226 0002527  70.1353 289.9805 14.58879506557496
ORBCOMM FM118           
1 41183U 15081E   26165.94661219  .00002342  00000+0  53124-3 0  9998
2 41183  47.0047  12.3690 0002883  17.4423 342.6561 14.58877028557402
ORBCOMM FM112           
1 41184U 15081F   26166.77303780  .00000520  00000+0  14621-3 0  9992
2 41184  46.9992 276.9346 0003652 211.8493 148.2172 14.58902578558743
ORBCOMM FM113           
1 41185U 15081G   26167.02356560  .00000312  00000+0  10215-3 0  9990
2 41185  47.0011 276.1255 0002213 220.0050 140.0673 14.58857538558765
ORBCOMM FM108           
1 41187U 15081J   26167.32840319  .00000299  00000+0  99554-4 0  9993
2 41187  47.0031 186.2578 0002924 218.5464 141.5214 14.58869229559957
ORBCOMM FM117           
1 41188U 15081K   26166.74602042  .00000224  00000+0  83708-4 0  9990
2 41188  46.9995 187.6455 0003413 219.0322 141.0318 14.58864211559919
ORBCOMM FM116           
1 41189U 15081L   26167.00043122  .00000533  00000+0  14896-3 0  9993
2 41189  47.0024 276.2334 0000613  54.7119 305.3825 14.58881857558768
